{
  "norad_id": 43056,
  "name": "GSAT0216 (GALILEO 20)",
  "history": [
    {
      "epoch": "2026-03-28T08:36:12.435264Z",
      "apogee_km": 23227.87958175852,
      "perigee_km": 23216.329567496097,
      "latitude_deg": -1.6817757667488975e-05,
      "longitude_deg": -91.1165898050676,
      "height_km": 23219.50881037184,
      "semi_major_axis_km": 29600.241574627307,
      "eccentricity": 0.0001951,
      "inclination_deg": 55.1004,
      "raan_deg": 223.7286,
      "arg_perigee_deg": 299.6924,
      "mean_anomaly_deg": 60.2331,
      "mean_motion_rev_day": 1.70474678
    }
  ]
}